MEAN_MOTION;ECCENTRICITY;INCLINATION;RA_OF_ASC_NODE;ARG_OF_PERICENTER;MEAN_ANOMALY;BSTAR;MEAN_MOTION_DOT;MEAN_MOTION_DDOT;TYPE
13.16348524;0.0007183;100.0745;81.5762;198.885;161.1995;-1.8651E-5;-4.9E-7;0;Amateur
13.16348491;0.0007234;100.0745;82.5183;196.723;163.3635;-2.9296E-5;-5.3E-7;0;Amateur
13.16348532;0.0007238;100.0746;82.9527;195.6688;164.4209;-1.9541E-5;-5.0E-7;0;Amateur
13.16348515;0.0007234;100.0744;83.4592;194.5594;165.5303;-8.6803E-6;-4.5E-7;0;Amateur
13.16348663;0.0007263;100.0744;84.1835;192.6175;167.476;2.7225E-5;-3.2E-7;0;Amateur
13.16348639;0.0007269;100.0745;84.4009;191.9373;168.1558;3.4649E-5;-2.9E-7;0;Amateur
13.16348739;0.0007314;100.0746;85.1252;190.0235;170.0739;5.1667E-5;-2.2E-7;0;Amateur
13.16348743;0.0007326;100.0745;85.4149;189.4035;170.6941;5.4233E-5;-2.1E-7;0;Amateur
13.16348846;0.0007352;100.0745;86.284;187.1556;172.9455;5.3312E-5;-2.2E-7;0;Amateur
13.16348961;0.0007378;100.0745;86.7189;186.4717;173.6327;5.9807E-5;-1.9E-7;0;Amateur
13.16349054;0.000742;100.0745;87.2984;184.7891;175.3152;7.0593E-5;-1.5E-7;0;Amateur
13.16349182;0.0007431;100.0744;87.733;183.8856;176.222;8.2653E-5;-1.1E-7;0;Amateur
13.16349156;0.0007487;100.0744;88.2399;182.4999;177.6073;7.7318E-5;-1.3E-7;0;Amateur
13.16349134;0.0007691;100.0745;89.1814;180.3348;179.7769;7.4584E-5;-1.4E-7;0;Amateur
13.16348746;0.0007726;100.0745;90.1227;178.3631;181.748;-3.2199E-6;-4.3E-7;0;Amateur
13.16348769;0.0007754;100.0744;91.0639;176.1182;183.9993;2.0855E-6;-4.1E-7;0;Amateur
13.1634877;0.0007754;100.0744;91.5707;174.8902;185.2292;2.0855E-6;-4.1E-7;0;Amateur
13.1634877;0.0007754;100.0744;92.0051;173.8376;186.2834;2.0855E-6;-4.1E-7;0;Amateur
13.16348661;0.0007801;100.0744;92.7295;172.2569;187.8672;-3.5974E-5;-5.6E-7;0;Amateur
13.16348652;0.0007801;100.0744;93.0191;171.5552;188.5694;-3.5974E-5;-5.6E-7;0;Amateur
13.16348734;0.0007788;100.0751;93.6713;170.0136;190.1149;-3.4057E-5;-5.5E-7;0;Amateur
13.16348749;0.0007807;100.0752;93.9609;169.2816;190.8466;-2.4913E-5;-5.2E-7;0;Amateur
13.1634885;0.0007898;100.0755;94.6136;167.8837;192.2468;-1.282E-5;-4.7E-7;0;Amateur
13.16348749;0.000791;100.0757;94.9037;167.105;193.0251;-1.9807E-5;-5.0E-7;0;Amateur
13.16348623;0.0007934;100.0756;95.8451;164.9706;195.1629;-2.8794E-5;-5.3E-7;0;Amateur
13.1634865;0.0007951;100.0756;96.5693;163.3455;196.7926;-1.5926E-5;-4.8E-7;0;Amateur
13.1634862;0.0007931;100.0754;96.7865;162.8138;197.3236;-1.3038E-5;-4.7E-7;0;Amateur
13.16348756;0.0007942;100.0755;97.7285;160.5199;199.6217;1.8909E-5;-3.5E-7;0;Amateur
13.16348963;0.0007953;100.0754;98.7423;158.3173;201.8284;4.7532E-5;-2.4E-7;0;Amateur
13.16349049;0.0007965;100.0753;99.6838;156.1632;203.9854;4.4616E-5;-2.5E-7;0;Amateur
13.16348854;0.0007936;100.0751;100.626;153.3603;206.7902;-4.4497E-6;-4.4E-7;0;Amateur
13.16348848;0.0007957;100.075;101.0606;152.4285;207.7258;-1.0906E-5;-4.6E-7;0;Amateur
13.16348911;0.0007966;100.0749;101.3499;151.6716;208.4838;9.3926E-7;-4.2E-7;0;Amateur
13.16348756;0.0007912;100.0748;101.5671;150.3606;209.7914;-8.811E-6;-4.5E-7;0;Amateur
13.1634881;0.0007918;100.0745;102.2913;148.5859;211.5728;3.7255E-6;-4.1E-7;0;Amateur
13.16348791;0.0007902;100.0745;102.5088;147.9536;212.205;9.5741E-6;-3.8E-7;0;Amateur
13.16348937;0.0007856;100.0744;103.4499;145.6109;214.5511;4.0643E-5;-2.7E-7;0;Amateur
13.16349315;0.0007813;100.0738;104.3914;143.4437;216.7215;0.00010305;-3.0E-8;0;Amateur
13.16349428;0.0007782;100.0737;104.826;142.3466;217.8204;0.00011293;1.0E-8;0;Amateur
13.16349402;0.000782;100.0737;105.405;141.0781;219.0892;9.2721E-5;-7.0E-8;0;Amateur
13.16349288;0.0007621;100.0736;106.0564;138.4364;221.733;4.4046E-5;-2.5E-7;0;Amateur
13.16349227;0.0007642;100.0733;106.3461;137.784;222.3854;3.4329E-5;-2.9E-7;0;Amateur
13.163493;0.0007665;100.0733;107.2874;135.5425;224.6305;3.9057E-5;-2.7E-7;0;Amateur
13.16349051;0.0007662;100.0734;108.2294;133.035;227.1407;4.0681E-6;-4.1E-7;0;Amateur
13.16349052;0.0007662;100.0734;108.6638;131.9824;228.1944;4.0681E-6;-4.1E-7;0;Amateur
13.16349054;0.0007662;100.0734;109.1706;130.7544;229.4237;4.0681E-6;-4.1E-7;0;Amateur
13.16349056;0.0007662;100.0734;109.8946;129;231.1797;4.0681E-6;-4.1E-7;0;Amateur
13.16349057;0.0007662;100.0734;110.1118;128.4737;231.7066;4.0681E-6;-4.1E-7;0;Amateur
13.1634906;0.0007662;100.0734;111.1254;126.0176;234.1649;4.0681E-6;-4.1E-7;0;Amateur
13.16349063;0.0007662;100.0734;112.0665;123.7369;236.4476;4.0681E-6;-4.1E-7;0;Amateur
13.16349066;0.0007662;100.0734;113.0077;121.4562;238.7302;4.0681E-6;-4.1E-7;0;Amateur
13.16349485;0.0007883;100.0732;113.9522;120.1227;240.067;8.5603E-5;-9.0E-8;0;Amateur
13.1634955;0.0007883;100.0732;114.8934;117.842;242.3494;8.5603E-5;-9.0E-8;0;Amateur
13.1634957;0.0007883;100.0732;115.183;117.1402;243.0516;8.5603E-5;-9.0E-8;0;Amateur
13.16349629;0.0007883;100.0732;116.0518;115.035;245.1583;8.5603E-5;-9.0E-8;0;Amateur
13.16349649;0.0007883;100.0732;116.3413;114.3332;245.8605;8.5603E-5;-9.0E-8;0;Amateur
13.16349688;0.0007883;100.0732;116.9205;112.9297;247.2649;8.5603E-5;-9.0E-8;0;Amateur
13.16349728;0.0007883;100.0732;117.4997;111.5263;248.6692;8.5603E-5;-9.0E-8;0;Amateur
13.16349748;0.0007883;100.0732;117.7893;110.8245;249.3714;8.5603E-5;-9.0E-8;0;Amateur
13.16349792;0.0007883;100.0732;118.4409;109.2456;250.9512;8.5603E-5;-9.0E-8;0;Amateur
13.16349376;0.0007935;100.0728;118.7324;108.2899;251.9001;5.2564E-6;-4.0E-7;0;Amateur
13.16349379;0.0007935;100.0728;119.4564;106.5355;253.6631;5.2564E-6;-4.0E-7;0;Amateur
13.16349119;0.0007936;100.0729;119.6741;105.9223;254.2738;-4.2732E-5;-5.8E-7;0;Amateur
13.16349246;0.0008068;100.0729;120.0361;107.3551;252.8485;-7.3045E-6;-4.5E-7;0;Amateur
13.16349189;0.000806;100.0728;120.398;106.4097;253.7895;-1.5365E-5;-4.8E-7;0;Amateur
13.16349122;0.0008065;100.0728;120.6155;105.7828;254.416;-1.3523E-5;-4.7E-7;0;Amateur
13.16349048;0.0008065;100.0729;121.3395;104.0091;256.192;-2.701E-5;-5.2E-7;0;Amateur
13.16349095;0.0008045;100.0731;121.5569;103.3267;256.8746;-1.0789E-5;-4.6E-7;0;Amateur
13.16349119;0.0008048;100.0729;122.4978;101.2673;258.9344;-6.0539E-6;-4.4E-7;0;Amateur
13.1634915;0.0008122;100.0731;123.5122;99.6072;260.5949;-1.5864E-5;-4.8E-7;0;Amateur
13.1634913;0.0008159;100.0727;124.453;97.5575;262.6461;-4.137E-5;-5.8E-7;0;Amateur
13.16349118;0.0008159;100.0727;124.8149;96.6802;263.524;-4.137E-5;-5.8E-7;0;Amateur
13.16349098;0.0008159;100.0727;125.3941;95.2767;264.9278;-4.137E-5;-5.8E-7;0;Amateur
13.16349008;0.0008261;100.0728;125.8293;97.7062;262.5029;-5.2451E-5;-6.2E-7;0;Amateur
13.16348941;0.0008309;100.0729;126.3369;96.5296;263.6745;-4.2834E-5;-5.8E-7;0;Amateur
13.16348992;0.00083;100.0728;127.0611;95.1241;265.0822;-2.5134E-5;-5.2E-7;0;Amateur
13.16349031;0.000831;100.0727;127.3506;94.3195;265.8865;-7.4546E-6;-4.5E-7;0;Amateur
13.16349141;0.0008316;100.0723;128.0023;93.044;267.1631;1.0197E-5;-3.8E-7;0;Amateur
13.16349135;0.0008345;100.0723;128.2195;92.5115;267.6948;1.5867E-5;-3.6E-7;0;Amateur
13.1634917;0.0008321;100.0723;128.5823;91.4589;268.7488;1.3094E-5;-3.7E-7;0;Amateur
13.16349245;0.0008321;100.0722;128.9442;90.6125;269.5954;1.9038E-5;-3.5E-7;0;Amateur
13.16349379;0.0008314;100.0724;129.2344;89.9508;270.2573;4.6828E-5;-2.4E-7;0;Amateur
13.16349562;0.0008263;100.0722;129.6691;88.6723;271.5365;6.5064E-5;-1.7E-7;0;Amateur
13.16349525;0.0008234;100.0723;130.176;87.5712;272.6341;4.8056E-5;-2.4E-7;0;Amateur
13.16349658;0.0008229;100.0723;130.8276;86.0568;274.1487;6.1583E-5;-1.9E-7;0;Amateur
13.16349594;0.0008233;100.0722;131.1172;85.4845;274.72;5.1129E-5;-2.3E-7;0;Amateur
13.16349675;0.0008244;100.0722;131.8415;83.813;276.3926;6.6727E-5;-1.7E-7;0;Amateur
13.16349539;0.0008218;100.072;132.0588;83.2799;276.9231;4.7738E-5;-2.4E-7;0;Amateur
13.16349503;0.0008242;100.0719;133.0003;81.2581;278.9458;4.6058E-5;-2.5E-7;0;Amateur
13.16349537;0.0008234;100.0719;133.9423;79.1692;281.0344;5.4624E-5;-2.1E-7;0;Amateur
13.16349552;0.0008234;100.0719;134.3042;78.292;281.9118;5.4624E-5;-2.1E-7;0;Amateur
13.16349581;0.0008234;100.0719;134.9557;76.713;283.4902;5.4624E-5;-2.1E-7;0;Amateur
13.16349597;0.0008234;100.0719;135.3177;75.8357;284.3671;5.4624E-5;-2.1E-7;0;Amateur
13.16349609;0.0008234;100.0719;135.6072;75.1339;285.0686;5.4624E-5;-2.1E-7;0;Amateur
13.16349349;0.0008179;100.0724;135.8987;75.1122;285.0903;-1.9261E-5;-4.9E-7;0;Amateur
13.16349342;0.0008179;100.0724;136.333;74.0596;286.1419;-1.9261E-5;-4.9E-7;0;Amateur
13.16349412;0.0008195;100.0724;136.5501;73.7099;286.4933;-2.0015E-5;-5.0E-7;0;Amateur
13.16349305;0.0008203;100.0724;136.8397;72.8614;287.3385;-3.8916E-5;-5.7E-7;0;Amateur
13.16349297;0.0008204;100.0724;137.5641;71.5486;288.6523;-4.1127E-5;-5.8E-7;0;Amateur
13.163493;0.0008208;100.0725;137.7814;70.8179;289.3817;-3.1323E-5;-5.4E-7;0;Amateur
13.16349231;0.0008196;100.0727;138.7236;69.1769;291.0217;-2.6954E-5;-5.2E-7;0;Amateur
13.16349185;0.0008184;100.0728;139.665;67.2478;292.95;-2.7617E-5;-5.3E-7;0;Amateur
13.16349176;0.0008184;100.0728;140.0993;66.1952;294.0019;-2.7617E-5;-5.3E-7;0;Amateur
13.16349357;0.0008179;100.0731;140.751;64.6711;295.5252;2.0287E-5;-3.4E-7;0;Amateur
13.16349461;0.000821;100.0731;141.6202;62.8712;297.3238;2.7311E-5;-3.2E-7;0;Amateur
13.1634961;0.0008175;100.073;142.0553;61.6721;298.5246;3.8909E-5;-2.7E-7;0;Amateur
13.16349597;0.0008174;100.0727;142.4897;60.5289;299.6638;3.0266E-5;-3.1E-7;0;Amateur
13.16349666;0.0008163;100.0726;142.7794;59.616;300.577;3.7903E-5;-2.8E-7;0;Amateur
13.16349639;0.0008192;100.0732;143.649;57.7431;302.4458;3.7696E-5;-2.8E-7;0;Amateur
13.16349669;0.0008184;100.0732;143.8663;57.2572;302.9333;4.2667E-5;-2.6E-7;0;Amateur
13.16349719;0.0008177;100.0732;144.2286;56.6733;303.5168;5.1978E-5;-2.2E-7;0;Amateur
13.16349562;0.0008159;100.0733;144.446;56.1761;304.0111;2.7772E-5;-3.2E-7;0;Amateur
13.16349588;0.0008146;100.0733;144.8803;55.3077;304.8806;3.2571E-5;-3.0E-7;0;Amateur
13.16349421;0.0008169;100.0731;145.3874;54.1613;306.024;8.339E-6;-3.9E-7;0;Amateur
13.16349517;0.000816;100.0732;146.1118;52.6663;307.5201;2.4106E-5;-3.3E-7;0;Amateur
13.16349559;0.0008178;100.0731;146.3291;52.0345;308.1506;3.515E-5;-2.9E-7;0;Amateur
